CCSDS_OMM_VERS = 2.0
CREATION_DATE  = 
ORIGINATOR     = 

OBJECT_NAME    = SL-16 R/B
OBJECT_ID      = 1996-051B
CENTER_NAME    = EARTH
REF_FRAME      = TEME
TIME_SYSTEM    = UTC
MEAN_ELEMENT_THEORY = SGP/SGP4

EPOCH          = 2025-10-30T18:47:14.316576
MEAN_MOTION    = 14.12392410
ECCENTRICITY   = .00172476
INCLINATION    = 70.7586
RA_OF_ASC_NODE = 90.2048
ARG_OF_PERICENTER = 316.5109
MEAN_ANOMALY   = 43.4649

EPHEMERIS_TYPE = 0
CLASSIFICATION_TYPE = U
NORAD_CAT_ID   = 24298
ELEMENT_SET_NO = 999
REV_AT_EPOCH   = 50330
BSTAR          = -.7184662E-5
MEAN_MOTION_DOT = -.63E-6
MEAN_MOTION_DDOT = 0

CCSDS_OMM_VERS = 2.0
CREATION_DATE  = 
ORIGINATOR     = 

OBJECT_NAME    = ORBVIEW 2 (SEASTAR)
OBJECT_ID      = 1997-037A
CENTER_NAME    = EARTH
REF_FRAME      = TEME
TIME_SYSTEM    = UTC
MEAN_ELEMENT_THEORY = SGP/SGP4

EPOCH          = 2025-10-30T21:44:45.058848
MEAN_MOTION    = 14.35367591
ECCENTRICITY   = .00032411
INCLINATION    = 98.8439
RA_OF_ASC_NODE = 99.9093
ARG_OF_PERICENTER = 86.4025
MEAN_ANOMALY   = 273.7530

EPHEMERIS_TYPE = 0
CLASSIFICATION_TYPE = U
NORAD_CAT_ID   = 24883
ELEMENT_SET_NO = 999
REV_AT_EPOCH   = 48985
BSTAR          = .18181961E-3
MEAN_MOTION_DOT = .475E-5
MEAN_MOTION_DDOT = 0

CCSDS_OMM_VERS = 2.0
CREATION_DATE  = 
ORIGINATOR     = 

OBJECT_NAME    = SL-16 R/B
OBJECT_ID      = 1998-043G
CENTER_NAME    = EARTH
REF_FRAME      = TEME
TIME_SYSTEM    = UTC
MEAN_ELEMENT_THEORY = SGP/SGP4

EPOCH          = 2025-10-30T18:53:39.969024
MEAN_MOTION    = 14.26009095
ECCENTRICITY   = .00105157
INCLINATION    = 98.8047
RA_OF_ASC_NODE = 251.3812
ARG_OF_PERICENTER = 36.3023
MEAN_ANOMALY   = 323.8868

EPHEMERIS_TYPE = 0
CLASSIFICATION_TYPE = U
NORAD_CAT_ID   = 25400
ELEMENT_SET_NO = 999
REV_AT_EPOCH   = 42047
BSTAR          = .78387069E-4
MEAN_MOTION_DOT = .142E-5
MEAN_MOTION_DDOT = 0

CCSDS_OMM_VERS = 2.0
CREATION_DATE  = 
ORIGINATOR     = 

OBJECT_NAME    = SL-16 R/B
OBJECT_ID      = 1998-045B
CENTER_NAME    = EARTH
REF_FRAME      = TEME
TIME_SYSTEM    = UTC
MEAN_ELEMENT_THEORY = SGP/SGP4

EPOCH          = 2025-10-30T19:39:37.047456
MEAN_MOTION    = 14.16164252
ECCENTRICITY   = .00091246
INCLINATION    = 71.0095
RA_OF_ASC_NODE = 94.6838
ARG_OF_PERICENTER = 233.5537
MEAN_ANOMALY   = 126.4746

EPHEMERIS_TYPE = 0
CLASSIFICATION_TYPE = U
NORAD_CAT_ID   = 25407
ELEMENT_SET_NO = 999
REV_AT_EPOCH   = 40871
BSTAR          = .19398188E-3
MEAN_MOTION_DOT = .336E-5
MEAN_MOTION_DDOT = 0

CCSDS_OMM_VERS = 2.0
CREATION_DATE  = 
ORIGINATOR     = 

OBJECT_NAME    = ISS (ZARYA)
OBJECT_ID      = 1998-067A
CENTER_NAME    = EARTH
REF_FRAME      = TEME
TIME_SYSTEM    = UTC
MEAN_ELEMENT_THEORY = SGP/SGP4

EPOCH          = 2025-10-30T14:03:38.731680
MEAN_MOTION    = 15.49627707
ECCENTRICITY   = .0004906
INCLINATION    = 51.6344
RA_OF_ASC_NODE = 356.1236
ARG_OF_PERICENTER = 357.8004
MEAN_ANOMALY   = 2.2962

EPHEMERIS_TYPE = 0
CLASSIFICATION_TYPE = U
NORAD_CAT_ID   = 25544
ELEMENT_SET_NO = 999
REV_AT_EPOCH   = 53616
BSTAR          = .35694553E-3
MEAN_MOTION_DOT = .19707E-3
MEAN_MOTION_DDOT = 0

CCSDS_OMM_VERS = 2.0
CREATION_DATE  = 
ORIGINATOR     = 

OBJECT_NAME    = CZ-4B R/B
OBJECT_ID      = 1999-025C
CENTER_NAME    = EARTH
REF_FRAME      = TEME
TIME_SYSTEM    = UTC
MEAN_ELEMENT_THEORY = SGP/SGP4

EPOCH          = 2025-10-30T03:36:49.061376
MEAN_MOTION    = 14.18227393
ECCENTRICITY   = .00370925
INCLINATION    = 98.6837
RA_OF_ASC_NODE = 345.3908
ARG_OF_PERICENTER = 2.0774
MEAN_ANOMALY   = 65.1800

EPHEMERIS_TYPE = 0
CLASSIFICATION_TYPE = U
NORAD_CAT_ID   = 25732
ELEMENT_SET_NO = 999
REV_AT_EPOCH   = 36966
BSTAR          = .68526614E-4
MEAN_MOTION_DOT = .99E-6
MEAN_MOTION_DDOT = 0

CCSDS_OMM_VERS = 2.0
CREATION_DATE  = 
ORIGINATOR     = 

OBJECT_NAME    = OKEAN-O
OBJECT_ID      = 1999-039A
CENTER_NAME    = EARTH
REF_FRAME      = TEME
TIME_SYSTEM    = UTC
MEAN_ELEMENT_THEORY = SGP/SGP4

EPOCH          = 2025-10-30T14:10:40.661760
MEAN_MOTION    = 14.80051102
ECCENTRICITY   = .00017993
INCLINATION    = 97.9666
RA_OF_ASC_NODE = 359.6539
ARG_OF_PERICENTER = 77.0931
MEAN_ANOMALY   = 283.0481

EPHEMERIS_TYPE = 0
CLASSIFICATION_TYPE = U
NORAD_CAT_ID   = 25860
ELEMENT_SET_NO = 999
REV_AT_EPOCH   = 41514
BSTAR          = .1387759E-3
MEAN_MOTION_DOT = .999E-5
MEAN_MOTION_DDOT = 0

CCSDS_OMM_VERS = 2.0
CREATION_DATE  = 
ORIGINATOR     = 

OBJECT_NAME    = SL-16 R/B
OBJECT_ID      = 1999-039B
CENTER_NAME    = EARTH
REF_FRAME      = TEME
TIME_SYSTEM    = UTC
MEAN_ELEMENT_THEORY = SGP/SGP4

EPOCH          = 2025-10-30T15:03:40.437504
MEAN_MOTION    = 14.81492884
ECCENTRICITY   = .00139818
INCLINATION    = 98.0190
RA_OF_ASC_NODE = 357.7630
ARG_OF_PERICENTER = 323.7982
MEAN_ANOMALY   = 36.2283

EPHEMERIS_TYPE = 0
CLASSIFICATION_TYPE = U
NORAD_CAT_ID   = 25861
ELEMENT_SET_NO = 999
REV_AT_EPOCH   = 41760
BSTAR          = .1141059E-3
MEAN_MOTION_DOT = .841E-5
MEAN_MOTION_DDOT = 0

CCSDS_OMM_VERS = 2.0
CREATION_DATE  = 
ORIGINATOR     = 

OBJECT_NAME    = DELTA 2 R/B
OBJECT_ID      = 1999-041E
CENTER_NAME    = EARTH
REF_FRAME      = TEME
TIME_SYSTEM    = UTC
MEAN_ELEMENT_THEORY = SGP/SGP4

EPOCH          = 2025-10-29T21:03:49.318560
MEAN_MOTION    = 14.11249873
ECCENTRICITY   = .05045946
INCLINATION    = 51.7628
RA_OF_ASC_NODE = 103.5068
ARG_OF_PERICENTER = 322.4927
MEAN_ANOMALY   = 34.1772

EPHEMERIS_TYPE = 0
CLASSIFICATION_TYPE = U
NORAD_CAT_ID   = 25876
ELEMENT_SET_NO = 999
REV_AT_EPOCH   = 34455
BSTAR          = .16573457E-3
MEAN_MOTION_DOT = .788E-5
MEAN_MOTION_DDOT = 0

CCSDS_OMM_VERS = 2.0
CREATION_DATE  = 
ORIGINATOR     = 

OBJECT_NAME    = HELIOS 1B
OBJECT_ID      = 1999-064A
CENTER_NAME    = EARTH
REF_FRAME      = TEME
TIME_SYSTEM    = UTC
MEAN_ELEMENT_THEORY = SGP/SGP4

EPOCH          = 2025-10-30T16:11:29.931072
MEAN_MOTION    = 14.87015838
ECCENTRICITY   = .0002434
INCLINATION    = 98.1757
RA_OF_ASC_NODE = 197.0705
ARG_OF_PERICENTER = 101.1100
MEAN_ANOMALY   = 259.0388

EPHEMERIS_TYPE = 0
CLASSIFICATION_TYPE = U
NORAD_CAT_ID   = 25977
ELEMENT_SET_NO = 999
REV_AT_EPOCH   = 66593
BSTAR          = .30592854E-3
MEAN_MOTION_DOT = .2683E-4
MEAN_MOTION_DDOT = 0

CCSDS_OMM_VERS = 2.0
CREATION_DATE  = 
ORIGINATOR     = 

OBJECT_NAME    = TERRA
OBJECT_ID      = 1999-068A
CENTER_NAME    = EARTH
REF_FRAME      = TEME
TIME_SYSTEM    = UTC
MEAN_ELEMENT_THEORY = SGP/SGP4

EPOCH          = 2025-10-30T22:19:39.865728
MEAN_MOTION    = 14.60877020
ECCENTRICITY   = .00014547
INCLINATION    = 97.9812
RA_OF_ASC_NODE = 357.1708
ARG_OF_PERICENTER = 200.0086
MEAN_ANOMALY   = 238.4032

EPHEMERIS_TYPE = 0
CLASSIFICATION_TYPE = U
NORAD_CAT_ID   = 25994
ELEMENT_SET_NO = 999
REV_AT_EPOCH   = 37613
BSTAR          = .15465615E-3
MEAN_MOTION_DOT = .712E-5
MEAN_MOTION_DDOT = 0

CCSDS_OMM_VERS = 2.0
CREATION_DATE  = 
ORIGINATOR     = 

OBJECT_NAME    = SL-16 R/B
OBJECT_ID      = 2000-006B
CENTER_NAME    = EARTH
REF_FRAME      = TEME
TIME_SYSTEM    = UTC
MEAN_ELEMENT_THEORY = SGP/SGP4

EPOCH          = 2025-10-30T14:08:10.171968
MEAN_MOTION    = 14.15796705
ECCENTRICITY   = .00159793
INCLINATION    = 71.0044
RA_OF_ASC_NODE = 11.3883
ARG_OF_PERICENTER = 11.9345
MEAN_ANOMALY   = 348.2154

EPHEMERIS_TYPE = 0
CLASSIFICATION_TYPE = U
NORAD_CAT_ID   = 26070
ELEMENT_SET_NO = 999
REV_AT_EPOCH   = 33014
BSTAR          = .19683521E-3
MEAN_MOTION_DOT = .34E-5
MEAN_MOTION_DDOT = 0

