SL-16 R/B               
1 24298U 96051B   25303.78280459 -.00000063  00000+0 -71847-5 0  9994
2 24298  70.7586  90.2048 0017247 316.5109  43.4649 14.12392410503307
ORBVIEW 2 (SEASTAR)     
1 24883U 97037A   25303.90607707  .00000475  00000+0  18182-3 0  9998
2 24883  98.8439  99.9093 0003241  86.4025 273.7530 14.35367591489857
SL-16 R/B               
1 25400U 98043G   25303.78726816  .00000142  00000+0  78387-4 0  9996
2 25400  98.8047 251.3812 0010515  36.3023 323.8868 14.26009095420471
SL-16 R/B               
1 25407U 98045B   25303.81917879  .00000336  00000+0  19398-3 0  9991
2 25407  71.0095  94.6838 0009124 233.5537 126.4746 14.16164252408716
ISS (ZARYA)             
1 25544U 98067A   25303.58586495  .00019707  00000+0  35695-3 0  9997
2 25544  51.6344 356.1236 0004906 357.8004   2.2962 15.49627707536167
CZ-4B R/B               
1 25732U 99025C   25303.15056784  .00000099  00000+0  68527-4 0  9992
2 25732  98.6837 345.3908 0037092   2.0774  65.1800 14.18227393369665
OKEAN-O                 
1 25860U 99039A   25303.59074840  .00000999  00000+0  13878-3 0  9997
2 25860  97.9666 359.6539 0001799  77.0931 283.0481 14.80051102415142
SL-16 R/B               
1 25861U 99039B   25303.62755136  .00000841  00000+0  11411-3 0  9993
2 25861  98.0190 357.7630 0013981 323.7982  36.2283 14.81492884417609
DELTA 2 R/B             
1 25876U 99041E   25302.87765415  .00000788  00000+0  16573-3 0  9993
2 25876  51.7628 103.5068 0504594 322.4927  34.1772 14.11249873344553
HELIOS 1B               
1 25977U 99064A   25303.67465198  .00002683  00000+0  30593-3 0  9998
2 25977  98.1757 197.0705 0002434 101.1100 259.0388 14.87015838665934
TERRA                   
1 25994U 99068A   25303.93032252  .00000712  00000+0  15466-3 0  9994
2 25994  97.9812 357.1708 0001454 200.0086 238.4032 14.60877020376135
SL-16 R/B               
1 26070U 00006B   25303.58900662  .00000340  00000+0  19684-3 0  9997
2 26070  71.0044  11.3883 0015979  11.9345 348.2154 14.15796705330144
